name,email,address,country,region,currency
Chadwick Nguyen,nec.ligula@protonmail.edu,Ap #466-2636 A Rd.,Germany,Texas,$44.16
India Newman,vel.venenatis@icloud.couk,2125 Sed Street,China,Henegouwen,$92.54
Deborah Chase,lectus.ante@protonmail.org,Ap #601-6030 Eu Av.,New Zealand,łódzkie,$1.88
Donna Salazar,mauris@google.org,781-6803 Curabitur St.,Indonesia,Madrid,$2.68
Heidi Bennett,ultrices.a.auctor@hotmail.net,326-6406 Natoque Ave,Norway,South Gyeongsang,$32.80
Hyacinth Bauer,urna.suscipit@protonmail.com,"601-916 Ante, Rd.",Russian Federation,Cusco,$28.43
Forrest Sweeney,commodo.ipsum@aol.edu,5500 Ut Avenue,Canada,Novgorod Oblast,$47.63
Kirestin Kramer,aliquet.molestie.tellus@aol.edu,"1495 Id, Rd.",Poland,Namen,$82.24
Grant George,felis@google.org,508-5183 Suspendisse Avenue,Australia,Comunitat Valenciana,$38.37
Shaeleigh Le,quisque@hotmail.couk,Ap #600-3443 Dictum. St.,Ireland,Västra Götalands län,$23.51
Scarlett Hester,dui.suspendisse@google.org,824-2407 Nisi Street,Peru,Moscow Oblast,$74.46
Fritz Meyers,lectus.nullam.suscipit@outlook.edu,"P.O. Box 502, 7825 A, Avenue",New Zealand,Nord-Pas-de-Calais,$91.20
Amanda Myers,consectetuer.adipiscing@google.net,"P.O. Box 764, 2041 Etiam St.",Italy,Rogaland,$4.34
Hedda Prince,sem@aol.net,126 Sit Rd.,Peru,Møre og Romsdal,$78.58
Madonna Garner,orci.donec@outlook.couk,Ap #932-2288 Nunc Rd.,Italy,Antalya,$17.44
Tanek Larson,a.mi.fringilla@hotmail.couk,369-9250 Et Street,Germany,Oost-Vlaanderen,$12.13
Shad Petersen,orci.consectetuer@aol.net,134-4184 Leo Av.,Mexico,Xīběi,$63.02
Calista Dickerson,posuere.at.velit@yahoo.com,Ap #697-8084 Enim. Rd.,Italy,Haute-Normandie,$45.48
Cairo Herman,nulla.tincidunt@google.ca,"P.O. Box 959, 7154 Id, St.",Netherlands,North Island,$24.05
Sierra Suarez,ultricies.adipiscing@yahoo.couk,"P.O. Box 749, 7060 Cum Av.",Pakistan,Mpumalanga,$18.43
Nash Herring,quisque@outlook.edu,991-5819 Ante Rd.,Chile,South Australia,$26.40
Ingrid Doyle,phasellus.at@outlook.couk,192 Magna. Avenue,Russian Federation,Poitou-Charentes,$2.89
Kim Brock,non.dapibus@aol.ca,654-8001 Semper Ave,Indonesia,Cagayan Valley,$22.15
Harlan Baker,sit@protonmail.org,"6090 Vulputate, St.",France,Antwerpen,$2.17
Lester Olsen,dolor.quam.elementum@icloud.net,968-2002 Sed Ave,Ireland,Comunitat Valenciana,$95.04
Jeanette Duran,orci.sem@icloud.com,9805 Mollis St.,Australia,Magdalena,$75.51
Tobias Key,in.faucibus.orci@icloud.couk,"P.O. Box 256, 8876 Sed Ave",Sweden,New South Wales,$0.48
George Avila,et.rutrum@protonmail.couk,Ap #284-5000 Orci. Ave,South Korea,Kherson oblast,$25.91
Alvin Vaughan,class.aptent.taciti@yahoo.org,384-5221 Quisque Street,Poland,Aisén,$5.55
Justin Bright,pede.nec@yahoo.ca,334-4843 Magna. Road,Mexico,Sucre,$17.03
